{
"type": "FeatureCollection",
"name": "centrosEducativos_universidades",
"crs": { "type": "name", "properties": { "name": "urn:ogc:def:crs:EPSG::3035" } },
"features": [
{ "type": "Feature", "properties": { "centro_cod": "28027618", "centro_nom": "UNIVERSIDAD COMPLUTENSE DE MADRID", "centro_tip": "UNIVERSIDAD", "centro_tit": "PÚBLICO", "centro_t_1": "U. COMPLUTENSE DE MADRID", "municipio_": "Madrid", "distrito_n": null, "direccion_": 438543.00000000006, "direccio_1": 4476533.0, "ARTE": 0, "DANZA": 0, "EDUCACIONA": 0, "EDUCACIONE": 0, "FORMACIONP": 0, "HOSPITALAR": 0, "IDIOMAS": 0, "INFANTIL": 0, "MILITAR": 0, "MUSICA": 0, "OTRO": 0, "OTRONOEDUC": 0, "PENITENCIA": 0, "PRIMARIA": 0, "SECUNDARIA": 0, "SUPERIOR": 0, "UNIVERSITA": 1 }, "geometry": { "type": "Point", "coordinates": [ 3158020.526062224060297, 2032395.805732692126185 ] } },
{ "type": "Feature", "properties": { "centro_cod": "28027591", "centro_nom": "UNIVERSIDAD POLITECNICA DE MADRID", "centro_tip": "UNIVERSIDAD", "centro_tit": "PÚBLICO", "centro_t_1": "U. POLITECNICA DE MADRID", "municipio_": "Madrid", "distrito_n": null, "direccion_": -3.71928880052634, "direccio_1": 40.448660643622503, "ARTE": 0, "DANZA": 0, "EDUCACIONA": 0, "EDUCACIONE": 0, "FORMACIONP": 0, "HOSPITALAR": 0, "IDIOMAS": 0, "INFANTIL": 0, "MILITAR": 0, "MUSICA": 0, "OTRO": 0, "OTRONOEDUC": 0, "PENITENCIA": 0, "PRIMARIA": 0, "SECUNDARIA": 0, "SUPERIOR": 0, "UNIVERSITA": 1 }, "geometry": { "type": "Point", "coordinates": [ 3158676.504313741344959, 2033568.713701093802229 ] } },
{ "type": "Feature", "properties": { "centro_cod": "28027606", "centro_nom": "UNIVERSIDAD AUTONOMA DE MADRID", "centro_tip": "UNIVERSIDAD", "centro_tit": "PÚBLICO", "centro_t_1": "U. AUTONOMA DE MADRID", "municipio_": "Madrid", "distrito_n": null, "direccion_": -3.6943773263786102, "direccio_1": 40.546700341069602, "ARTE": 0, "DANZA": 0, "EDUCACIONA": 0, "EDUCACIONE": 0, "FORMACIONP": 0, "HOSPITALAR": 0, "IDIOMAS": 0, "INFANTIL": 0, "MILITAR": 0, "MUSICA": 0, "OTRO": 0, "OTRONOEDUC": 0, "PENITENCIA": 0, "PRIMARIA": 0, "SECUNDARIA": 0, "SUPERIOR": 0, "UNIVERSITA": 1 }, "geometry": { "type": "Point", "coordinates": [ 3162552.625319357961416, 2043895.450519718462601 ] } },
{ "type": "Feature", "properties": { "centro_cod": "28027898", "centro_nom": "UNIVERSIDAD DE ALCALA DE HENARES", "centro_tip": "UNIVERSIDAD", "centro_tit": "PÚBLICO", "centro_t_1": "U. DE ALCALA DE HENARES", "municipio_": "Alcalá de Henares", "distrito_n": null, "direccion_": -3.3628876336992399, "direccio_1": 40.482539274125301, "ARTE": 0, "DANZA": 0, "EDUCACIONA": 0, "EDUCACIONE": 0, "FORMACIONP": 0, "HOSPITALAR": 0, "IDIOMAS": 0, "INFANTIL": 0, "MILITAR": 0, "MUSICA": 0, "OTRO": 0, "OTRONOEDUC": 0, "PENITENCIA": 0, "PRIMARIA": 0, "SECUNDARIA": 0, "SUPERIOR": 0, "UNIVERSITA": 1 }, "geometry": { "type": "Point", "coordinates": [ 3189115.839325917884707, 2031866.914000523975119 ] } },
{ "type": "Feature", "properties": { "centro_cod": "28041810", "centro_nom": "UNIVERSIDAD CARLOS III", "centro_tip": "UNIVERSIDAD", "centro_tit": "PÚBLICO", "centro_t_1": "U. CARLOS III", "municipio_": "Getafe", "distrito_n": null, "direccion_": -3.7264433469545302, "direccio_1": 40.316295045841493, "ARTE": 0, "DANZA": 0, "EDUCACIONA": 0, "EDUCACIONE": 0, "FORMACIONP": 0, "HOSPITALAR": 0, "IDIOMAS": 0, "INFANTIL": 0, "MILITAR": 0, "MUSICA": 0, "OTRO": 0, "OTRONOEDUC": 0, "PENITENCIA": 0, "PRIMARIA": 0, "SECUNDARIA": 0, "SUPERIOR": 0, "UNIVERSITA": 1 }, "geometry": { "type": "Point", "coordinates": [ 3155656.864720964804292, 2019222.097324027214199 ] } },
{ "type": "Feature", "properties": { "centro_cod": "AM_1", "centro_nom": "UNIVERSIDAD JUAN CARLOS", "centro_tip": "UNIVERSIDAD", "centro_tit": "PÚBLICO", "centro_t_1": "U. JUAN CARLOS", "municipio_": "Möstoles", "distrito_n": null, "direccion_": -3.87319020393927, "direccio_1": 40.334864352996803, "ARTE": 0, "DANZA": 0, "EDUCACIONA": 0, "EDUCACIONE": 0, "FORMACIONP": 0, "HOSPITALAR": 0, "IDIOMAS": 0, "INFANTIL": 0, "MILITAR": 0, "MUSICA": 0, "OTRO": 0, "OTRONOEDUC": 0, "PENITENCIA": 0, "PRIMARIA": 0, "SECUNDARIA": 0, "SUPERIOR": 0, "UNIVERSITA": 1 }, "geometry": { "type": "Point", "coordinates": [ 3143698.193919392302632, 2023520.752112834714353 ] } },
{ "type": "Feature", "properties": { "centro_cod": "AM_2", "centro_nom": "CUNEF UNIVERSIDAD", "centro_tip": "UNIVERSIDAD", "centro_tit": "PRIVADO", "centro_t_1": "CUNEF UNIVERSIDAD", "municipio_": "Madrid", "distrito_n": null, "direccion_": -3.7202622362592099, "direccio_1": 40.451717633351102, "ARTE": 0, "DANZA": 0, "EDUCACIONA": 0, "EDUCACIONE": 0, "FORMACIONP": 0, "HOSPITALAR": 0, "IDIOMAS": 0, "INFANTIL": 0, "MILITAR": 0, "MUSICA": 0, "OTRO": 0, "OTRONOEDUC": 0, "PENITENCIA": 0, "PRIMARIA": 0, "SECUNDARIA": 0, "SUPERIOR": 0, "UNIVERSITA": 1 }, "geometry": { "type": "Point", "coordinates": [ 3158650.99153015948832, 2033917.563537605572492 ] } },
{ "type": "Feature", "properties": { "centro_cod": "AM_3", "centro_nom": "ESIC UNIVERSIDAD", "centro_tip": "UNIVERSIDAD", "centro_tit": "PRIVADO", "centro_t_1": "ESIC UNIVERSIDAD", "municipio_": null, "distrito_n": null, "direccion_": -3.8014641490702399, "direccio_1": 40.436900859564801, "ARTE": 0, "DANZA": 0, "EDUCACIONA": 0, "EDUCACIONE": 0, "FORMACIONP": 0, "HOSPITALAR": 0, "IDIOMAS": 0, "INFANTIL": 0, "MILITAR": 0, "MUSICA": 0, "OTRO": 0, "OTRONOEDUC": 0, "PENITENCIA": 0, "PRIMARIA": 0, "SECUNDARIA": 0, "SUPERIOR": 0, "UNIVERSITA": 1 }, "geometry": { "type": "Point", "coordinates": [ 3151585.05327715864405, 2033550.614142873790115 ] } },
{ "type": "Feature", "properties": { "centro_cod": "AM_5", "centro_nom": "UNIVERSIDAD ANTONIO DE NEBRIJA", "centro_tip": "UNIVERSIDAD", "centro_tit": "PRIVADO", "centro_t_1": "U. ANTONIO DE NEBRIJA", "municipio_": null, "distrito_n": null, "direccion_": -3.71335152570418, "direccio_1": 40.430474239140501, "ARTE": 0, "DANZA": 0, "EDUCACIONA": 0, "EDUCACIONE": 0, "FORMACIONP": 0, "HOSPITALAR": 0, "IDIOMAS": 0, "INFANTIL": 0, "MILITAR": 0, "MUSICA": 0, "OTRO": 0, "OTRONOEDUC": 0, "PENITENCIA": 0, "PRIMARIA": 0, "SECUNDARIA": 0, "SUPERIOR": 0, "UNIVERSITA": 1 }, "geometry": { "type": "Point", "coordinates": [ 3158840.731427694205195, 2031491.132574984570965 ] } },
{ "type": "Feature", "properties": { "centro_cod": "AM_8", "centro_nom": "UNIVERSIDAD EUROPEA DE MADRID", "centro_tip": "UNIVERSIDAD", "centro_tit": "PRIVADO", "centro_t_1": "U. EUROPEA DE MADRID", "municipio_": null, "distrito_n": null, "direccion_": -3.9190492376382098, "direccio_1": 40.373288664392597, "ARTE": 0, "DANZA": 0, "EDUCACIONA": 0, "EDUCACIONE": 0, "FORMACIONP": 0, "HOSPITALAR": 0, "IDIOMAS": 0, "INFANTIL": 0, "MILITAR": 0, "MUSICA": 0, "OTRO": 0, "OTRONOEDUC": 0, "PENITENCIA": 0, "PRIMARIA": 0, "SECUNDARIA": 0, "SUPERIOR": 0, "UNIVERSITA": 1 }, "geometry": { "type": "Point", "coordinates": [ 3140568.362815501634032, 2028430.367470624158159 ] } },
{ "type": "Feature", "properties": { "centro_cod": "AM_9", "centro_nom": "UNIVERSIDAD FRANCISCO DE VITORIA", "centro_tip": "UNIVERSIDAD", "centro_tit": "PRIVADO", "centro_t_1": "U. FRANCISCO DE VITORIA", "municipio_": null, "distrito_n": null, "direccion_": -3.8337472661490901, "direccio_1": 40.4405184108114, "ARTE": 0, "DANZA": 0, "EDUCACIONA": 0, "EDUCACIONE": 0, "FORMACIONP": 0, "HOSPITALAR": 0, "IDIOMAS": 0, "INFANTIL": 0, "MILITAR": 0, "MUSICA": 0, "OTRO": 0, "OTRONOEDUC": 0, "PENITENCIA": 0, "PRIMARIA": 0, "SECUNDARIA": 0, "SUPERIOR": 0, "UNIVERSITA": 1 }, "geometry": { "type": "Point", "coordinates": [ 3148950.807010385673493, 2034445.202070072293282 ] } },
{ "type": "Feature", "properties": { "centro_cod": "AM_10", "centro_nom": "UNIVERSIDAD DE DISEÑO INNOVACION Y TECNOLOGÍA (UDIT)", "centro_tip": "UNIVERSIDAD", "centro_tit": "PRIVADO", "centro_t_1": "UDIT", "municipio_": null, "distrito_n": null, "direccion_": -3.6674704737050599, "direccio_1": 40.456445611145803, "ARTE": 0, "DANZA": 0, "EDUCACIONA": 0, "EDUCACIONE": 0, "FORMACIONP": 0, "HOSPITALAR": 0, "IDIOMAS": 0, "INFANTIL": 0, "MILITAR": 0, "MUSICA": 0, "OTRO": 0, "OTRONOEDUC": 0, "PENITENCIA": 0, "PRIMARIA": 0, "SECUNDARIA": 0, "SUPERIOR": 0, "UNIVERSITA": 1 }, "geometry": { "type": "Point", "coordinates": [ 3163154.479789588600397, 2033624.540481980424374 ] } },
{ "type": "Feature", "properties": { "centro_cod": "AM_11", "centro_nom": "UNIVERSIDAD INTERNACIONAL DE LA EMPRESA", "centro_tip": "UNIVERSIDAD", "centro_tit": "PRIVADO", "centro_t_1": "U. INTERNACIONAL DE LA EMPRESA", "municipio_": null, "distrito_n": null, "direccion_": -3.7063933936438, "direccio_1": 40.432788405002498, "ARTE": 0, "DANZA": 0, "EDUCACIONA": 0, "EDUCACIONE": 0, "FORMACIONP": 0, "HOSPITALAR": 0, "IDIOMAS": 0, "INFANTIL": 0, "MILITAR": 0, "MUSICA": 0, "OTRO": 0, "OTRONOEDUC": 0, "PENITENCIA": 0, "PRIMARIA": 0, "SECUNDARIA": 0, "SUPERIOR": 0, "UNIVERSITA": 1 }, "geometry": { "type": "Point", "coordinates": [ 3159465.409276479389518, 2031637.052931589772925 ] } },
{ "type": "Feature", "properties": { "centro_cod": "AM_12", "centro_nom": "UNIVERSIDAD INTERNACIONAL VILLANUEVA", "centro_tip": "UNIVERSIDAD", "centro_tit": "PRIVADO", "centro_t_1": "U. INTERNACIONAL VILLANUEAVA", "municipio_": null, "distrito_n": null, "direccion_": -3.7018663581521301, "direccio_1": 40.496632335381001, "ARTE": 0, "DANZA": 0, "EDUCACIONA": 0, "EDUCACIONE": 0, "FORMACIONP": 0, "HOSPITALAR": 0, "IDIOMAS": 0, "INFANTIL": 0, "MILITAR": 0, "MUSICA": 0, "OTRO": 0, "OTRONOEDUC": 0, "PENITENCIA": 0, "PRIMARIA": 0, "SECUNDARIA": 0, "SUPERIOR": 0, "UNIVERSITA": 1 }, "geometry": { "type": "Point", "coordinates": [ 3161011.181201102212071, 2038541.12228898354806 ] } },
{ "type": "Feature", "properties": { "centro_cod": "AM_13", "centro_nom": "UNIVERSIDAD PONTIFICA COMILLAS", "centro_tip": "UNIVERSIDAD", "centro_tit": "PRIVADO", "centro_t_1": "U. PONTIFICA COMILLAS", "municipio_": null, "distrito_n": null, "direccion_": -3.6814063365855398, "direccio_1": 40.551244412377493, "ARTE": 0, "DANZA": 0, "EDUCACIONA": 0, "EDUCACIONE": 0, "FORMACIONP": 0, "HOSPITALAR": 0, "IDIOMAS": 0, "INFANTIL": 0, "MILITAR": 0, "MUSICA": 0, "OTRO": 0, "OTRONOEDUC": 0, "PENITENCIA": 0, "PRIMARIA": 0, "SECUNDARIA": 0, "SUPERIOR": 0, "UNIVERSITA": 1 }, "geometry": { "type": "Point", "coordinates": [ 3163719.361083726398647, 2044193.266186817083508 ] } },
{ "type": "Feature", "properties": { "centro_cod": "AM_14", "centro_nom": "UNIVERSIDAD SAN PABLO CEU", "centro_tip": "UNIVERSIDAD", "centro_tit": "PRIVADO", "centro_t_1": "U. SAN PABLO CEU", "municipio_": null, "distrito_n": null, "direccion_": -3.7170970814902198, "direccio_1": 40.442963073852802, "ARTE": 0, "DANZA": 0, "EDUCACIONA": 0, "EDUCACIONE": 0, "FORMACIONP": 0, "HOSPITALAR": 0, "IDIOMAS": 0, "INFANTIL": 0, "MILITAR": 0, "MUSICA": 0, "OTRO": 0, "OTRONOEDUC": 0, "PENITENCIA": 0, "PRIMARIA": 0, "SECUNDARIA": 0, "SUPERIOR": 0, "UNIVERSITA": 1 }, "geometry": { "type": "Point", "coordinates": [ 3158755.666831991635263, 2032912.736701199086383 ] } },
{ "type": "Feature", "properties": { "centro_cod": "AM_15", "centro_nom": "UNIVERSIDAD POLITECNICA DE MADRID CAMPUS SUR", "centro_tip": "UNIVERSIDAD", "centro_tit": "PÚBLICO", "centro_t_1": "U. POLITECNICA DE MADRID", "municipio_": null, "distrito_n": null, "direccion_": -3.6267921635258702, "direccio_1": 40.401328898198898, "ARTE": 0, "DANZA": 0, "EDUCACIONA": 0, "EDUCACIONE": 0, "FORMACIONP": 0, "HOSPITALAR": 0, "IDIOMAS": 0, "INFANTIL": 0, "MILITAR": 0, "MUSICA": 0, "OTRO": 0, "OTRONOEDUC": 0, "PENITENCIA": 0, "PRIMARIA": 0, "SECUNDARIA": 0, "SUPERIOR": 0, "UNIVERSITA": 1 }, "geometry": { "type": "Point", "coordinates": [ 3165556.964458953589201, 2026982.049725532531738 ] } },
{ "type": "Feature", "properties": { "centro_cod": "AM_16", "centro_nom": "UNIVERSIDAD CARLOS III PUERTA DE TOLEDO CAMPUS", "centro_tip": "UNIVERSIDAD", "centro_tit": "PÚBLICO", "centro_t_1": "U. CARLOS III", "municipio_": null, "distrito_n": null, "direccion_": -3.7096235039599201, "direccio_1": 40.4068414382198, "ARTE": 0, "DANZA": 0, "EDUCACIONA": 0, "EDUCACIONE": 0, "FORMACIONP": 0, "HOSPITALAR": 0, "IDIOMAS": 0, "INFANTIL": 0, "MILITAR": 0, "MUSICA": 0, "OTRO": 0, "OTRONOEDUC": 0, "PENITENCIA": 0, "PRIMARIA": 0, "SECUNDARIA": 0, "SUPERIOR": 0, "UNIVERSITA": 1 }, "geometry": { "type": "Point", "coordinates": [ 3158720.835741651244462, 2028852.637311068829149 ] } },
{ "type": "Feature", "properties": { "centro_cod": "AM_17", "centro_nom": "UNIVERSIDAD CARLOS III CAMPUS LEGANES", "centro_tip": "UNIVERSIDAD", "centro_tit": "PÚBLICO", "centro_t_1": "U. CARLOS III", "municipio_": null, "distrito_n": null, "direccion_": -3.7649102039732401, "direccio_1": 40.333766998789201, "ARTE": 0, "DANZA": 0, "EDUCACIONA": 0, "EDUCACIONE": 0, "FORMACIONP": 0, "HOSPITALAR": 0, "IDIOMAS": 0, "INFANTIL": 0, "MILITAR": 0, "MUSICA": 0, "OTRO": 0, "OTRONOEDUC": 0, "PENITENCIA": 0, "PRIMARIA": 0, "SECUNDARIA": 0, "SUPERIOR": 0, "UNIVERSITA": 1 }, "geometry": { "type": "Point", "coordinates": [ 3152751.960312597453594, 2021723.143549130531028 ] } },
{ "type": "Feature", "properties": { "centro_cod": "AM_19", "centro_nom": "UNIVERSIDAD CARLOS III CAMPUS MANUEL BECERRA", "centro_tip": "UNIVERSIDAD", "centro_tit": "PÚBLICO", "centro_t_1": "U. CARLOS III", "municipio_": null, "distrito_n": null, "direccion_": -3.6625987121010501, "direccio_1": 40.434758644923001, "ARTE": 0, "DANZA": 0, "EDUCACIONA": 0, "EDUCACIONE": 0, "FORMACIONP": 0, "HOSPITALAR": 0, "IDIOMAS": 0, "INFANTIL": 0, "MILITAR": 0, "MUSICA": 0, "OTRO": 0, "OTRONOEDUC": 0, "PENITENCIA": 0, "PRIMARIA": 0, "SECUNDARIA": 0, "SUPERIOR": 0, "UNIVERSITA": 1 }, "geometry": { "type": "Point", "coordinates": [ 3163166.976405601017177, 2031181.048552018357441 ] } },
{ "type": "Feature", "properties": { "centro_cod": "AM_20", "centro_nom": "UNIVERSIDAD CARLOS III CAMPUS VICÁLVARO", "centro_tip": "UNIVERSIDAD", "centro_tit": "PÚBLICO", "centro_t_1": "U. CARLOS III", "municipio_": null, "distrito_n": null, "direccion_": -3.6094496100631002, "direccio_1": 40.404411171199797, "ARTE": 0, "DANZA": 0, "EDUCACIONA": 0, "EDUCACIONE": 0, "FORMACIONP": 0, "HOSPITALAR": 0, "IDIOMAS": 0, "INFANTIL": 0, "MILITAR": 0, "MUSICA": 0, "OTRO": 0, "OTRONOEDUC": 0, "PENITENCIA": 0, "PRIMARIA": 0, "SECUNDARIA": 0, "SUPERIOR": 0, "UNIVERSITA": 1 }, "geometry": { "type": "Point", "coordinates": [ 3167065.458679846487939, 2027054.137938588391989 ] } },
{ "type": "Feature", "properties": { "centro_cod": "AM_21", "centro_nom": "UNIVERSIDAD CARLOS III SEDE ARGÜELLES", "centro_tip": "UNIVERSIDAD", "centro_tit": "PÚBLICO", "centro_t_1": "U. CARLOS III", "municipio_": null, "distrito_n": null, "direccion_": -3.7179781584472802, "direccio_1": 40.428392285990903, "ARTE": 0, "DANZA": 0, "EDUCACIONA": 0, "EDUCACIONE": 0, "FORMACIONP": 0, "HOSPITALAR": 0, "IDIOMAS": 0, "INFANTIL": 0, "MILITAR": 0, "MUSICA": 0, "OTRO": 0, "OTRONOEDUC": 0, "PENITENCIA": 0, "PRIMARIA": 0, "SECUNDARIA": 0, "SUPERIOR": 0, "UNIVERSITA": 1 }, "geometry": { "type": "Point", "coordinates": [ 3158415.415786072146147, 2031334.809650940820575 ] } },
{ "type": "Feature", "properties": { "centro_cod": "AM_22", "centro_nom": "UNIVERSIDAD JUAN CARLOS CAMPUS DE VICALVARO", "centro_tip": "UNIVERSIDAD", "centro_tit": "PÚBLICO", "centro_t_1": "U. JUAN CARLOS", "municipio_": null, "distrito_n": null, "direccion_": -3.6106246247892901, "direccio_1": 40.406266753953403, "ARTE": 0, "DANZA": 0, "EDUCACIONA": 0, "EDUCACIONE": 0, "FORMACIONP": 0, "HOSPITALAR": 0, "IDIOMAS": 0, "INFANTIL": 0, "MILITAR": 0, "MUSICA": 0, "OTRO": 0, "OTRONOEDUC": 0, "PENITENCIA": 0, "PRIMARIA": 0, "SECUNDARIA": 0, "SUPERIOR": 0, "UNIVERSITA": 1 }, "geometry": { "type": "Point", "coordinates": [ 3167000.708283650688827, 2027274.759971566963941 ] } },
{ "type": "Feature", "properties": { "centro_cod": "AM_23", "centro_nom": "UNIVERSIDAD JUAN CARLOS CAMPUS DE MADRID MANUEL BECERRA", "centro_tip": "UNIVERSIDAD", "centro_tit": "PÚBLICO", "centro_t_1": "U. JUAN CARLOS", "municipio_": null, "distrito_n": null, "direccion_": -3.66783358195039, "direccio_1": 40.428131577848802, "ARTE": 0, "DANZA": 0, "EDUCACIONA": 0, "EDUCACIONE": 0, "FORMACIONP": 0, "HOSPITALAR": 0, "IDIOMAS": 0, "INFANTIL": 0, "MILITAR": 0, "MUSICA": 0, "OTRO": 0, "OTRONOEDUC": 0, "PENITENCIA": 0, "PRIMARIA": 0, "SECUNDARIA": 0, "SUPERIOR": 0, "UNIVERSITA": 1 }, "geometry": { "type": "Point", "coordinates": [ 3162608.029333691112697, 2030537.280200095381588 ] } },
{ "type": "Feature", "properties": { "centro_cod": "AM_24", "centro_nom": "UNIVERSIDAD JUAN CARLOS CAMPUS DE FUENLABRADA", "centro_tip": "UNIVERSIDAD", "centro_tit": "PÚBLICO", "centro_t_1": "U. JUAN CARLOS", "municipio_": null, "distrito_n": null, "direccion_": -3.8194347121244299, "direccio_1": 40.2823261185682, "ARTE": 0, "DANZA": 0, "EDUCACIONA": 0, "EDUCACIONE": 0, "FORMACIONP": 0, "HOSPITALAR": 0, "IDIOMAS": 0, "INFANTIL": 0, "MILITAR": 0, "MUSICA": 0, "OTRO": 0, "OTRONOEDUC": 0, "PENITENCIA": 0, "PRIMARIA": 0, "SECUNDARIA": 0, "SUPERIOR": 0, "UNIVERSITA": 1 }, "geometry": { "type": "Point", "coordinates": [ 3147236.072401409968734, 2016949.360503080999479 ] } },
{ "type": "Feature", "properties": { "centro_cod": "AM_25", "centro_nom": "UNIVERSIDAD JUAN CARLOS CAMPUS DE MADRID ARGÜELLES", "centro_tip": "UNIVERSIDAD", "centro_tit": "PÚBLICO", "centro_t_1": "U. JUAN CARLOS", "municipio_": null, "distrito_n": null, "direccion_": -3.7185767144685502, "direccio_1": 40.427274085150501, "ARTE": 0, "DANZA": 0, "EDUCACIONA": 0, "EDUCACIONE": 0, "FORMACIONP": 0, "HOSPITALAR": 0, "IDIOMAS": 0, "INFANTIL": 0, "MILITAR": 0, "MUSICA": 0, "OTRO": 0, "OTRONOEDUC": 0, "PENITENCIA": 0, "PRIMARIA": 0, "SECUNDARIA": 0, "SUPERIOR": 0, "UNIVERSITA": 1 }, "geometry": { "type": "Point", "coordinates": [ 3158344.864526772405952, 2031221.874285559635609 ] } },
{ "type": "Feature", "properties": { "centro_cod": "AM_27", "centro_nom": "UNIVERSIDAD JUAN CARLOS DE ALCORCÓN", "centro_tip": "UNIVERSIDAD", "centro_tit": "PÚBLICO", "centro_t_1": "U. JUAN CARLOS", "municipio_": null, "distrito_n": null, "direccion_": -3.8463008861303298, "direccio_1": 40.353008652651901, "ARTE": 0, "DANZA": 0, "EDUCACIONA": 0, "EDUCACIONE": 0, "FORMACIONP": 0, "HOSPITALAR": 0, "IDIOMAS": 0, "INFANTIL": 0, "MILITAR": 0, "MUSICA": 0, "OTRO": 0, "OTRONOEDUC": 0, "PENITENCIA": 0, "PRIMARIA": 0, "SECUNDARIA": 0, "SUPERIOR": 0, "UNIVERSITA": 1 }, "geometry": { "type": "Point", "coordinates": [ 3146285.851619798690081, 2025084.088019715156406 ] } },
{ "type": "Feature", "properties": { "centro_cod": "AM_28", "centro_nom": "CUNEF UNIVERSIDAD CAMPUS PIRINEOS", "centro_tip": "UNIVERSIDAD", "centro_tit": "PÚBLICO", "centro_t_1": "CUNEF UNIVERSIDAD", "municipio_": null, "distrito_n": null, "direccion_": -3.7191366599645002, "direccio_1": 40.453264552561997, "ARTE": 0, "DANZA": 0, "EDUCACIONA": 0, "EDUCACIONE": 0, "FORMACIONP": 0, "HOSPITALAR": 0, "IDIOMAS": 0, "INFANTIL": 0, "MILITAR": 0, "MUSICA": 0, "OTRO": 0, "OTRONOEDUC": 0, "PENITENCIA": 0, "PRIMARIA": 0, "SECUNDARIA": 0, "SUPERIOR": 0, "UNIVERSITA": 1 }, "geometry": { "type": "Point", "coordinates": [ 3158773.470447637140751, 2034069.232796998228878 ] } },
{ "type": "Feature", "properties": { "centro_cod": "AM_29", "centro_nom": "ESIC BUSINESS AND MARKETING SCHOOL", "centro_tip": "UNIVERSIDAD", "centro_tit": "PRIVADO", "centro_t_1": "ESIC UNIVERSIDAD", "municipio_": null, "distrito_n": null, "direccion_": -3.8089005579599999, "direccio_1": 40.443792053767098, "ARTE": 0, "DANZA": 0, "EDUCACIONA": 0, "EDUCACIONE": 0, "FORMACIONP": 0, "HOSPITALAR": 0, "IDIOMAS": 0, "INFANTIL": 0, "MILITAR": 0, "MUSICA": 0, "OTRO": 0, "OTRONOEDUC": 0, "PENITENCIA": 0, "PRIMARIA": 0, "SECUNDARIA": 0, "SUPERIOR": 0, "UNIVERSITA": 1 }, "geometry": { "type": "Point", "coordinates": [ 3151089.752205803059042, 2034418.141998438630253 ] } },
{ "type": "Feature", "properties": { "centro_cod": "AM_30", "centro_nom": "FACULTAD DE MEDICINA UNIVERSIDAD ALFONSO X EL SABIO", "centro_tip": "UNIVERSIDAD", "centro_tit": "PRIVADO", "centro_t_1": "U. ALFONSO X EL SABIO", "municipio_": null, "distrito_n": null, "direccion_": -3.7704848416447598, "direccio_1": 40.321472453075003, "ARTE": 0, "DANZA": 0, "EDUCACIONA": 0, "EDUCACIONE": 0, "FORMACIONP": 0, "HOSPITALAR": 0, "IDIOMAS": 0, "INFANTIL": 0, "MILITAR": 0, "MUSICA": 0, "OTRO": 0, "OTRONOEDUC": 0, "PENITENCIA": 0, "PRIMARIA": 0, "SECUNDARIA": 0, "SUPERIOR": 0, "UNIVERSITA": 1 }, "geometry": { "type": "Point", "coordinates": [ 3152059.300245101563632, 2020466.58757812762633 ] } },
{ "type": "Feature", "properties": { "centro_cod": "AM_32", "centro_nom": "UNIVERSIDAD CAMILO JOSÉ CELA CAMPUS CASTELLANA", "centro_tip": "UNIVERSIDAD", "centro_tit": "PRIVADO", "centro_t_1": "U. CAMILO JOSÉ CELA", "municipio_": null, "distrito_n": null, "direccion_": -3.6886811535788202, "direccio_1": 40.460276050698397, "ARTE": 0, "DANZA": 0, "EDUCACIONA": 0, "EDUCACIONE": 0, "FORMACIONP": 0, "HOSPITALAR": 0, "IDIOMAS": 0, "INFANTIL": 0, "MILITAR": 0, "MUSICA": 0, "OTRO": 0, "OTRONOEDUC": 0, "PENITENCIA": 0, "PRIMARIA": 0, "SECUNDARIA": 0, "SUPERIOR": 0, "UNIVERSITA": 1 }, "geometry": { "type": "Point", "coordinates": [ 3161449.687844391912222, 2034367.780023704981431 ] } },
{ "type": "Feature", "properties": { "centro_cod": "AM_33", "centro_nom": "UNIVERSIDAD CAMILO JOSE CELA CAMPUS ALMAGRO", "centro_tip": "UNIVERSIDAD", "centro_tit": "PRIVADO", "centro_t_1": "U. CAMILO JOSÉ CELA", "municipio_": null, "distrito_n": null, "direccion_": -3.6951514270242001, "direccio_1": 40.428640242895298, "ARTE": 0, "DANZA": 0, "EDUCACIONA": 0, "EDUCACIONE": 0, "FORMACIONP": 0, "HOSPITALAR": 0, "IDIOMAS": 0, "INFANTIL": 0, "MILITAR": 0, "MUSICA": 0, "OTRO": 0, "OTRONOEDUC": 0, "PENITENCIA": 0, "PRIMARIA": 0, "SECUNDARIA": 0, "SUPERIOR": 0, "UNIVERSITA": 1 }, "geometry": { "type": "Point", "coordinates": [ 3160330.589236378669739, 2031011.459378035273403 ] } },
{ "type": "Feature", "properties": { "centro_cod": "AM_34", "centro_nom": "UNIVERSIDAD EUROPEA DE MADRID CAMPUS DE ALCOBENDA", "centro_tip": "UNIVERSIDAD", "centro_tit": "PRIVADO", "centro_t_1": "U. EUROPEA DE MADRID", "municipio_": null, "distrito_n": null, "direccion_": -3.6162316136049202, "direccio_1": 40.535136725691501, "ARTE": 0, "DANZA": 0, "EDUCACIONA": 0, "EDUCACIONE": 0, "FORMACIONP": 0, "HOSPITALAR": 0, "IDIOMAS": 0, "INFANTIL": 0, "MILITAR": 0, "MUSICA": 0, "OTRO": 0, "OTRONOEDUC": 0, "PENITENCIA": 0, "PRIMARIA": 0, "SECUNDARIA": 0, "SUPERIOR": 0, "UNIVERSITA": 1 }, "geometry": { "type": "Point", "coordinates": [ 3168871.993633812759072, 2041438.622228481806815 ] } },
{ "type": "Feature", "properties": { "centro_cod": "AM_35", "centro_nom": "UNIVERSIDAD PONTIFICA COMILLAS CAMPUS ARRRUPE", "centro_tip": "UNIVERSIDAD", "centro_tit": "PRIVADO", "centro_t_1": "U. PONTIFICA COMILLAS", "municipio_": null, "distrito_n": null, "direccion_": -3.6795483089077101, "direccio_1": 40.467809100500801, "ARTE": 0, "DANZA": 0, "EDUCACIONA": 0, "EDUCACIONE": 0, "FORMACIONP": 0, "HOSPITALAR": 0, "IDIOMAS": 0, "INFANTIL": 0, "MILITAR": 0, "MUSICA": 0, "OTRO": 0, "OTRONOEDUC": 0, "PENITENCIA": 0, "PRIMARIA": 0, "SECUNDARIA": 0, "SUPERIOR": 0, "UNIVERSITA": 1 }, "geometry": { "type": "Point", "coordinates": [ 3162351.244046028703451, 2035050.707978556631133 ] } },
{ "type": "Feature", "properties": { "centro_cod": "AM_36", "centro_nom": "UNIVERSIDAD PONITIFICA COMILLAS CAMPUS AGUILERA", "centro_tip": "UNIVERSIDAD", "centro_tit": "PRIVADO", "centro_t_1": "U. PONTIFICA COMILLAS", "municipio_": null, "distrito_n": null, "direccion_": -3.7116130652150998, "direccio_1": 40.4300154396064, "ARTE": 0, "DANZA": 0, "EDUCACIONA": 0, "EDUCACIONE": 0, "FORMACIONP": 0, "HOSPITALAR": 0, "IDIOMAS": 0, "INFANTIL": 0, "MILITAR": 0, "MUSICA": 0, "OTRO": 0, "OTRONOEDUC": 0, "PENITENCIA": 0, "PRIMARIA": 0, "SECUNDARIA": 0, "SUPERIOR": 0, "UNIVERSITA": 1 }, "geometry": { "type": "Point", "coordinates": [ 3158977.849400632083416, 2031414.321428409777582 ] } },
{ "type": "Feature", "properties": { "centro_cod": "AM_37", "centro_nom": "UNIVERSIDAD SAN PABLO CEU CAMPUS MONTEPRINCIPE", "centro_tip": "UNIVERSIDAD", "centro_tit": "PRIVADO", "centro_t_1": "U. SAN PABLO CEU", "municipio_": null, "distrito_n": null, "direccion_": -3.83495252765983, "direccio_1": 40.3993398532252, "ARTE": 0, "DANZA": 0, "EDUCACIONA": 0, "EDUCACIONE": 0, "FORMACIONP": 0, "HOSPITALAR": 0, "IDIOMAS": 0, "INFANTIL": 0, "MILITAR": 0, "MUSICA": 0, "OTRO": 0, "OTRONOEDUC": 0, "PENITENCIA": 0, "PRIMARIA": 0, "SECUNDARIA": 0, "SUPERIOR": 0, "UNIVERSITA": 1 }, "geometry": { "type": "Point", "coordinates": [ 3148090.523392398841679, 2029967.195340264355764 ] } },
{ "type": "Feature", "properties": { "centro_cod": "AM_38", "centro_nom": "UNIVERSIDAD COMPLUTENSE DE MADRID CAMPUS SOMOSAGUAS", "centro_tip": "UNIVERSIDAD", "centro_tit": "PÚBLICO", "centro_t_1": "U. COMPLUTENSE DE MADRID", "municipio_": null, "distrito_n": null, "direccion_": -3.7896269011262498, "direccio_1": 40.430668994115003, "ARTE": 0, "DANZA": 0, "EDUCACIONA": 0, "EDUCACIONE": 0, "FORMACIONP": 0, "HOSPITALAR": 0, "IDIOMAS": 0, "INFANTIL": 0, "MILITAR": 0, "MUSICA": 0, "OTRO": 0, "OTRONOEDUC": 0, "PENITENCIA": 0, "PRIMARIA": 0, "SECUNDARIA": 0, "SUPERIOR": 0, "UNIVERSITA": 1 }, "geometry": { "type": "Point", "coordinates": [ 3152460.899971071630716, 2032687.159232173115015 ] } }
]
}
